{"type": "FeatureCollection", "features": [ {"type": "Feature", "properties": {"norad_id": 38779, "name": "GSAT-10 (GAGAN/PRN 128)", "group": "gnss", "lat": 0.027099957898359527, "lon": 18.845419065253562, "alt_km": 35788.94068872415, "timestamp": "2025-12-07T14:37:05.447402+00:00", "meta": {"OBJECT_NAME": "GSAT-10 (GAGAN/PRN 128)", "OBJECT_ID": "2012-051B", "EPOCH": "2025-12-06T20:37:38.577792", "MEAN_MOTION": 1.00273397, "ECCENTRICITY": 0.0002222, "INCLINATION": 0.0231, "RA_OF_ASC_NODE": 263.6855, "ARG_OF_PERICENTER": 225.943, "MEAN_ANOMALY": 338.6431, "EPHEMERIS_TYPE": 0, "CLASSIFICATION_TYPE": "U", "NORAD_CAT_ID": 38779, "ELEMENT_SET_NO": 999, "REV_AT_EPOCH": 4817, "BSTAR": 0, "MEAN_MOTION_DOT": -1.59e-06, "MEAN_MOTION_DDOT": 0}, "tle": {"line1": "1 38779U 12051B   25340.85947428 -.00000159  00000+0  00000+0 0  9998", "line2": "2 38779   0.0231 263.6855 0002222 225.9430 338.6431  1.00273397 48170"}}, "geometry": {"type": "Point", "coordinates": [18.845419065253562, 0.027099957898359527]}}, {"type": "Feature", "properties": {"norad_id": 38833, "name": "GPS BIIF-3  (PRN 24)", "group": "gnss", "lat": 1.1335942808206694, "lon": -29.3993362627567, "alt_km": 20369.510201352943, "timestamp": "2025-12-07T14:37:05.447414+00:00", "meta": {"OBJECT_NAME": "GPS BIIF-3  (PRN 24)", "OBJECT_ID": "2012-053A", "EPOCH": "2025-12-05T20:54:28.108224", "MEAN_MOTION": 2.00564871, "ECCENTRICITY": 0.01756137, "INCLINATION": 53.5564, "RA_OF_ASC_NODE": 151.5199, "ARG_OF_PERICENTER": 63.8922, "MEAN_ANOMALY": 297.9105, "EPHEMERIS_TYPE": 0, "CLASSIFICATION_TYPE": "U", "NORAD_CAT_ID": 38833, "ELEMENT_SET_NO": 999, "REV_AT_EPOCH": 9556, "BSTAR": 0, "MEAN_MOTION_DOT": 6.1e-07, "MEAN_MOTION_DDOT": 0}, "tle": {"line1": "1 38833U 12053A   25339.87115866  .00000061  00000+0  00000+0 0  9995", "line2": "2 38833  53.5564 151.5199 0175613  63.8922 297.9105  2.00564871 95560"}}, "geometry": {"type": "Point", "coordinates": [-29.3993362627567, 1.1335942808206694]}}, {"type": "Feature", "properties": {"norad_id": 38857, "name": "GSAT0103 (GALILEO-FM3)", "group": "gnss", "lat": -26.18975511869194, "lon": 87.18868647958709, "alt_km": 23222.08527147246, "timestamp": "2025-12-07T14:37:05.447428+00:00", "meta": {"OBJECT_NAME": "GSAT0103 (GALILEO-FM3)", "OBJECT_ID": "2012-055A", "EPOCH": "2025-12-05T21:38:47.654016", "MEAN_MOTION": 1.70473243, "ECCENTRICITY": 0.00024504, "INCLINATION": 55.6874, "RA_OF_ASC_NODE": 106.8543, "ARG_OF_PERICENTER": 267.6787, "MEAN_ANOMALY": 92.2447, "EPHEMERIS_TYPE": 0, "CLASSIFICATION_TYPE": "U", "NORAD_CAT_ID": 38857, "ELEMENT_SET_NO": 999, "REV_AT_EPOCH": 8171, "BSTAR": 0, "MEAN_MOTION_DOT": 8e-08, "MEAN_MOTION_DDOT": 0}, "tle": {"line1": "1 38857U 12055A   25339.90194044  .00000008  00000+0  00000+0 0  9993", "line2": "2 38857  55.6874 106.8543 0002450 267.6787  92.2447  1.70473243 81715"}}, "geometry": {"type": "Point", "coordinates": [87.18868647958709, -26.18975511869194]}}, {"type": "Feature", "properties": {"norad_id": 38953, "name": "BEIDOU-2 G6 (C02)", "group": "gnss", "lat": -3.2332405821739196, "lon": 20.024444051416616, "alt_km": 35756.234811620285, "timestamp": "2025-12-07T14:37:05.447440+00:00", "meta": {"OBJECT_NAME": "BEIDOU-2 G6 (C02)", "OBJECT_ID": "2012-059A", "EPOCH": "2025-12-06T22:18:37.478016", "MEAN_MOTION": 1.00270241, "ECCENTRICITY": 0.00075789, "INCLINATION": 3.9339, "RA_OF_ASC_NODE": 75.5599, "ARG_OF_PERICENTER": 289.2612, "MEAN_ANOMALY": 129.8378, "EPHEMERIS_TYPE": 0, "CLASSIFICATION_TYPE": "U", "NORAD_CAT_ID": 38953, "ELEMENT_SET_NO": 999, "REV_AT_EPOCH": 4798, "BSTAR": 0, "MEAN_MOTION_DOT": -1.72e-06, "MEAN_MOTION_DDOT": 0}, "tle": {"line1": "1 38953U 12059A   25340.92960044 -.00000172  00000+0  00000+0 0  9992", "line2": "2 38953   3.9339  75.5599 0007578 289.2612 129.8378  1.00270241 47987"}}, "geometry": {"type": "Point", "coordinates": [20.024444051416616, -3.2332405821739196]}}, {"type": "Feature", "properties": {"norad_id": 38977, "name": "LUCH 5B (SDCM/PRN 125)", "group": "gnss", "lat": -7.466557055710545, "lon": -80.83087347266837, "alt_km": 35762.271446175495, "timestamp": "2025-12-07T14:37:05.447453+00:00", "meta": {"OBJECT_NAME": "LUCH 5B (SDCM/PRN 125)", "OBJECT_ID": "2012-061A", "EPOCH": "2025-12-05T23:12:38.603808", "MEAN_MOTION": 1.00272178, "ECCENTRICITY": 0.00074333, "INCLINATION": 10.0624, "RA_OF_ASC_NODE": 51.767, "ARG_OF_PERICENTER": 189.4366, "MEAN_ANOMALY": 165.6208, "EPHEMERIS_TYPE": 0, "CLASSIFICATION_TYPE": "U", "NORAD_CAT_ID": 38977, "ELEMENT_SET_NO": 999, "REV_AT_EPOCH": 4766, "BSTAR": 0, "MEAN_MOTION_DOT": -1.35e-06, "MEAN_MOTION_DDOT": 0}, "tle": {"line1": "1 38977U 12061A   25339.96711347 -.00000135  00000+0  00000+0 0  9992", "line2": "2 38977  10.0624  51.7670 0007433 189.4366 165.6208  1.00272178 47668"}}, "geometry": {"type": "Point", "coordinates": [-80.83087347266837, -7.466557055710545]}}, {"type": "Feature", "properties": {"norad_id": 39155, "name": "COSMOS 2485 (747)", "group": "gnss", "lat": 52.06957110473198, "lon": -136.06075105638658, "alt_km": 19144.73446335421, "timestamp": "2025-12-07T14:37:05.447465+00:00", "meta": {"OBJECT_NAME": "COSMOS 2485 (747)", "OBJECT_ID": "2013-019A", "EPOCH": "2025-12-05T02:32:45.729312", "MEAN_MOTION": 2.13102875, "ECCENTRICITY": 0.00246247, "INCLINATION": 65.3094, "RA_OF_ASC_NODE": 80.124, "ARG_OF_PERICENTER": 229.2984, "MEAN_ANOMALY": 130.4888, "EPHEMERIS_TYPE": 0, "CLASSIFICATION_TYPE": "U", "NORAD_CAT_ID": 39155, "ELEMENT_SET_NO": 999, "REV_AT_EPOCH": 9814, "BSTAR": 0, "MEAN_MOTION_DOT": -2.1e-07, "MEAN_MOTION_DDOT": 0}, "tle": {"line1": "1 39155U 13019A   25339.10608483 -.00000021  00000+0  00000+0 0  9991", "line2": "2 39155  65.3094  80.1240 0024624 229.2984 130.4888  2.13102875 98144"}}, "geometry": {"type": "Point", "coordinates": [-136.06075105638658, 52.06957110473198]}}, {"type": "Feature", "properties": {"norad_id": 39166, "name": "GPS BIIF-4  (PRN 27)", "group": "gnss", "lat": -54.55046938438027, "lon": -167.7047811545812, "alt_km": 20444.783385367762, "timestamp": "2025-12-07T14:37:05.447476+00:00", "meta": {"OBJECT_NAME": "GPS BIIF-4  (PRN 27)", "OBJECT_ID": "2013-023A", "EPOCH": "2025-12-06T05:36:29.430144", "MEAN_MOTION": 2.00565051, "ECCENTRICITY": 0.01374987, "INCLINATION": 54.6578, "RA_OF_ASC_NODE": 276.8328, "ARG_OF_PERICENTER": 48.5421, "MEAN_ANOMALY": 312.6375, "EPHEMERIS_TYPE": 0, "CLASSIFICATION_TYPE": "U", "NORAD_CAT_ID": 39166, "ELEMENT_SET_NO": 999, "REV_AT_EPOCH": 9201, "BSTAR": 0, "MEAN_MOTION_DOT": -3.2e-07, "MEAN_MOTION_DDOT": 0}, "tle": {"line1": "1 39166U 13023A   25340.23367396 -.00000032  00000+0  00000+0 0  9991", "line2": "2 39166  54.6578 276.8328 0137498  48.5421 312.6375  2.00565051 92017"}}, "geometry": {"type": "Point", "coordinates": [-167.7047811545812, -54.55046938438027]}}, {"type": "Feature", "properties": {"norad_id": 39199, "name": "IRNSS-1A", "group": "gnss", "lat": -33.987366566538, "lon": -5.412124871686387, "alt_km": 35802.51375522484, "timestamp": "2025-12-07T14:37:05.447488+00:00", "meta": {"OBJECT_NAME": "IRNSS-1A", "OBJECT_ID": "2013-034A", "EPOCH": "2025-12-02T19:49:26.431104", "MEAN_MOTION": 1.00279053, "ECCENTRICITY": 0.00216608, "INCLINATION": 35.2852, "RA_OF_ASC_NODE": 66.6964, "ARG_OF_PERICENTER": 185.4059, "MEAN_ANOMALY": 172.3398, "EPHEMERIS_TYPE": 0, "CLASSIFICATION_TYPE": "U", "NORAD_CAT_ID": 39199, "ELEMENT_SET_NO": 999, "REV_AT_EPOCH": 4539, "BSTAR": 0, "MEAN_MOTION_DOT": 6.5e-07, "MEAN_MOTION_DDOT": 0}, "tle": {"line1": "1 39199U 13034A   25336.82600036  .00000065  00000+0  00000+0 0  9995", "line2": "2 39199  35.2852  66.6964 0021660 185.4059 172.3398  1.00279053 45393"}}, "geometry": {"type": "Point", "coordinates": [-5.412124871686387, -33.987366566538]}}, {"type": "Feature", "properties": {"norad_id": 39533, "name": "GPS BIIF-5  (PRN 30)", "group": "gnss", "lat": -52.96999725660681, "lon": 79.35685232410975, "alt_km": 20053.528512001743, "timestamp": "2025-12-07T14:37:05.447503+00:00", "meta": {"OBJECT_NAME": "GPS BIIF-5  (PRN 30)", "OBJECT_ID": "2014-008A", "EPOCH": "2025-12-06T17:26:15.806112", "MEAN_MOTION": 2.00574018, "ECCENTRICITY": 0.00790593, "INCLINATION": 53.6301, "RA_OF_ASC_NODE": 157.1699, "ARG_OF_PERICENTER": 226.4148, "MEAN_ANOMALY": 132.9387, "EPHEMERIS_TYPE": 0, "CLASSIFICATION_TYPE": "U", "NORAD_CAT_ID": 39533, "ELEMENT_SET_NO": 999, "REV_AT_EPOCH": 8582, "BSTAR": 0, "MEAN_MOTION_DOT": 5.9e-07, "MEAN_MOTION_DDOT": 0}, "tle": {"line1": "1 39533U 14008A   25340.72657183  .00000059  00000+0  00000+0 0  9991", "line2": "2 39533  53.6301 157.1699 0079059 226.4148 132.9387  2.00574018 85821"}}, "geometry": {"type": "Point", "coordinates": [79.35685232410975, -52.96999725660681]}}, {"type": "Feature", "properties": {"norad_id": 39617, "name": "ASTRA 5B (EGNOS/PRN 123)", "group": "gnss", "lat": -0.05587629603929018, "lon": -40.566359702797804, "alt_km": 35776.8173437084, "timestamp": "2025-12-07T14:37:05.447517+00:00", "meta": {"OBJECT_NAME": "ASTRA 5B (EGNOS/PRN 123)", "OBJECT_ID": "2014-011B", "EPOCH": "2025-12-06T21:42:38.817216", "MEAN_MOTION": 1.00268998, "ECCENTRICITY": 0.00045899, "INCLINATION": 0.0519, "RA_OF_ASC_NODE": 23.427, "ARG_OF_PERICENTER": 236.8294, "MEAN_ANOMALY": 164.8405, "EPHEMERIS_TYPE": 0, "CLASSIFICATION_TYPE": "U", "NORAD_CAT_ID": 39617, "ELEMENT_SET_NO": 999, "REV_AT_EPOCH": 4273, "BSTAR": 0, "MEAN_MOTION_DOT": 1.42e-06, "MEAN_MOTION_DDOT": 0}, "tle": {"line1": "1 39617U 14011B   25340.90461594  .00000142  00000+0  00000+0 0  9990", "line2": "2 39617   0.0519  23.4270 0004589 236.8294 164.8405  1.00268998 42738"}}, "geometry": {"type": "Point", "coordinates": [-40.566359702797804, -0.05587629603929018]}}]}